COSMOS 2426 (717)       
1 29671U 06062B   19148.57094520 -.00000030  00000-0  10000-3 0  9992
2 29671  65.1326 280.9550 0018169 161.5287 133.4048  2.13102924 96679
COSMOS 2433 (720)       
1 32275U 07052A   19149.46015185 -.00000065  00000-0  10000-3 0  9993
2 32275  65.8448  41.7620 0002457 292.6925 300.9066  2.13104351 90204
COSMOS 2432 (719)       
1 32276U 07052B   19148.68781986 -.00000070  00000-0  10000-3 0  9992
2 32276  65.8535  41.8721 0012108 335.9949 336.2401  2.13103814 90181
COSMOS 2434 (721)       
1 32393U 07065A   19148.68103083 -.00000031  00000-0  00000+0 0  9994
2 32393  64.7315 279.6576 0005143 103.5993 139.7417  2.13102971 88894
COSMOS 2436 (723)       
1 32395U 07065C   19148.61449340 -.00000031  00000-0  10000-3 0  9993
2 32395  64.7423 279.7144 0015728   5.6280 238.8543  2.13104384 88823
COSMOS 2456 (730)       
1 36111U 09070A   19148.77984777  .00000109  00000-0  00000-0 0  9997
2 36111  64.1993 159.2886 0006467 302.7473 189.4212  2.13102907 73567
COSMOS 2457 (733)       
1 36112U 09070B   19148.98287870  .00000110  00000-0  00000+0 0  9992
2 36112  64.1818 159.1846 0005261 195.9105 217.1921  2.13101540 73573
COSMOS 2459 (731)       
1 36400U 10007A   19148.63938199 -.00000070  00000-0  10000-3 0  9994
2 36400  65.7487  40.8117 0027629 352.3378 187.7264  2.13102190 71912
COSMOS 2461 (735)       
1 36401U 10007B   19149.24861664 -.00000067  00000-0  10000-3 0  9991
2 36401  65.7426  40.7632 0007934  55.5779 142.4053  2.13102252 71925
COSMOS 2460 (732)       
1 36402U 10007C   19148.82792267 -.00000069  00000-0  10000-3 0  9999
2 36402  65.7322  40.7421 0001721  11.2091 263.9560  2.13101469 71911
COSMOS 2464 (736)       
1 37139U 10041C   19149.05504123 -.00000032  00000-0  00000+0 0  9998
2 37139  64.3328 279.2772 0025080  15.0949  21.5987  2.13100693 67998
COSMOS 2474 (742)       
1 37829U 11055A   19149.21992532  .00000112  00000-0  00000+0 0  9991
2 37829  64.5212 160.1370 0011009 253.1924  73.1215  2.13101823 59561
COSMOS 2476 (744)       
1 37867U 11064A   19149.15431325  .00000111  00000-0  00000+0 0  9993
2 37867  64.5013 160.1926 0020942 244.1681  77.9525  2.13101929 58916
COSMOS 2477 (745)       
1 37868U 11064B   19148.88514416  .00000110  00000-0  00000+0 0  9995
2 37868  64.5102 160.2539 0018648 245.8089  48.5069  2.13101763 58864
COSMOS 2475 (743)       
1 37869U 11064C   19148.67244046  .00000108  00000-0  00000+0 0  9999
2 37869  64.5168 160.2570 0023180 266.2635 181.9230  2.13101993 58871
COSMOS 2485 (747)       
1 39155U 13019A   19148.61479405  .00000108  00000-0  00000-0 0  9995
2 39155  64.6703 160.3953 0021226 239.6515  73.2972  2.13101913 47374
COSMOS 2492 (754)       
1 39620U 14012A   19149.33265475 -.00000066  00000-0  10000-3 0  9994
2 39620  65.6222  40.5609 0015293 331.8379 206.9055  2.13103345 40343
COSMOS 2500 (755)       
1 40001U 14032A   19148.58608216 -.00000071  00000-0  00000+0 0  9992
2 40001  65.5622  40.5297 0004553 211.6284 335.8385  2.13102697 38547
COSMOS 2501 (702K)      
1 40315U 14075A   19149.12391468 -.00000032  00000-0  00000+0 0  9993
2 40315  64.0529 280.3630 0015667 203.7138 194.5091  2.13098634 34969
COSMOS 2514 (751)       
1 41330U 16008A   19148.72256605 -.00000070  00000-0  00000-0 0  9990
2 41330  65.3663  40.4930 0008034 221.0026 252.8142  2.13103157 25712
COSMOS 2516 (753)       
1 41554U 16032A   19148.66648446 -.00000032  00000-0  00000-0 0  9994
2 41554  64.2763 280.3405 0011584 212.0688 109.3273  2.13101659 23319
COSMOS 2522 (752)       
1 42939U 17055A   19148.98401329 -.00000032  00000-0  00000+0 0  9999
2 42939  64.5059 280.3965 0006163 239.1493 192.3394  2.13101857 13089
COSMOS 2527 (756)       
1 43508U 18053A   19148.61312819  .00000108  00000-0  00000+0 0  9999
2 43508  64.8346 160.1629 0009249 244.7216 293.3925  2.13102625  7369
COSMOS 2529 (757)       
1 43687U 18086A   19149.48269943 -.00000031  00000-0  00000+0 0  9994
2 43687  64.7203 280.3949 0008424 270.6480 139.1235  2.13101995  4405
